LEMUR-2-LEIA-PHILIP     
1 63246U 25052AN  26194.66650437  .00000421  00000+0  41192-4 0  9991
2 63246  97.6810  86.1686 0005085 122.7707 237.4005 14.97390448 72631
LEMUR-2-LIA-MARTIN      
1 63248U 25052AQ  26194.66170803  .00002661  00000+0  23014-3 0  9997
2 63248  97.6874  86.6800 0005392  93.6022 266.5818 14.98023427 72640
LEMUR-2-DELOITTE-1      
1 63259U 25052BB  26194.70871476  .00002283  00000+0  19939-3 0  9999
2 63259  97.6883  87.0566 0002497  66.3822 293.7662 14.97775097 72661
LEMUR-2-EMERSONROSE     
1 63261U 25052BD  26194.65765119  .00002886  00000+0  24124-3 0  9993
2 63261  97.6886  87.6160 0002767  63.7005 296.4502 14.99282406 72704
LEMUR-2-MARACHE-FRAN    
1 63262U 25052BE  26194.68141022  .00001909  00000+0  15702-3 0  9995
2 63262  97.6842  88.0061 0005034 258.6633 101.4026 15.00310104 72733
LEMUR-2-THEFALCONER     
1 63264U 25052BG  26194.67213823  .00001189  00000+0  10680-3 0  9995
2 63264  97.6839  86.6131 0000339 334.6761  25.4445 14.97560337 72654
LEMUR-2-UNTITLED-SC     
1 63351U 25061A   26194.86376672  .00001951  00000+0  11181-3 0  9999
2 63351  97.5650 170.0360 0019100 167.5563 192.6144 15.13641613 71627
LEMUR-2-ESPERANZA       
1 63352U 25061B   26194.83919469  .00001648  00000+0  94768-4 0  9990
2 63352  97.5656 170.1114 0018709 166.7847 193.3878 15.13747436 71624
LEMUR-2-KREMPEL-BRO2    
1 63353U 25061C   26194.85854786  .00001876  00000+0  10610-3 0  9999
2 63353  97.5703 170.6979 0019847 159.7337 200.4687 15.14174108 71643
LEMUR-2-THERMORAPTOR    
1 63354U 25061D   26194.83917869  .00001821  00000+0  10283-3 0  9996
2 63354  97.5708 170.7595 0019602 158.6334 201.5720 15.14256497 71640
LEMUR-2-NEUROSPICY      
1 63355U 25061E   26194.87487542  .00002309  00000+0  12908-3 0  9999
2 63355  97.5636 170.4007 0017345 161.3310 198.8561 15.14375512 71655
LEMUR-2-TILLINFINITY    
1 63356U 25061F   26194.83380476  .00002013  00000+0  11113-3 0  9993
2 63356  97.5622 170.6690 0018934 150.2850 209.9462 15.14958907 71673
LEMUR-2-KREMPEL-BRO1    
1 63357U 25061G   26194.87674087  .00002290  00000+0  12655-3 0  9991
2 63357  97.5622 170.6202 0019554 151.5684 208.6619 15.14766529 71678
LEMUR-2-LANGER2SPACE    
1 63358U 25061H   26194.84252813  .00001780  00000+0  10013-3 0  9997
2 63358  97.5628 170.3895 0017299 159.7511 200.4411 15.14459889 71659
LEMUR-2-BALTO           
1 63395U 25052BH  26194.66582205  .00002803  00000+0  22806-3 0  9999
2 63395  97.6932  87.9765 0005179 333.9696  26.1266 15.00356095 72733
LEMUR-2-KRISH           
1 64561U 25135AK  26194.82305852  .00002093  00000+0  18963-3 0  9996
2 64561  97.7772 309.5216 0001441  95.6216 264.5169 14.96443451 57903
